OBJECT_NAME,OBJECT_ID,EPOCH,MEAN_MOTION,ECCENTRICITY,INCLINATION,RA_OF_ASC_NODE,ARG_OF_PERICENTER,MEAN_ANOMALY,EPHEMERIS_TYPE,CLASSIFICATION_TYPE,NORAD_CAT_ID,ELEMENT_SET_NO,REV_AT_EPOCH,BSTAR,MEAN_MOTION_DOT,MEAN_MOTION_DDOT
GUOWANG OBJECT A,2026-137A,2026-06-30T17:46:23.219328,13.89813685,.0012632,49.9989,201.4250,270.2457,89.6993,0,U,69572,999,190,.94836E-4,-.29E-6,0
GUOWANG OBJECT B,2026-137B,2026-06-30T14:15:04.034880,13.89805334,.0011859,49.9986,201.9806,269.0296,90.9243,0,U,69573,999,189,.76857E-4,-.51E-6,0
GUOWANG OBJECT C,2026-137C,2026-06-30T14:13:35.313312,13.89816111,.0011914,49.9949,201.9638,270.3993,89.5540,0,U,69574,999,189,.86813E-4,-.39E-6,0
GUOWANG OBJECT D,2026-137D,2026-06-30T07:17:54.671136,13.89828912,.00111287,49.9947,203.1014,268.2349,91.7274,0,U,69575,999,185,.65477828E-4,-.65E-6,0
GUOWANG OBJECT E,2026-137E,2026-06-30T14:10:38.358336,13.89826642,.001123,50.0004,201.9704,272.1637,87.7975,0,U,69576,999,189,.75299E-4,-.53E-6,0
GUOWANG OBJECT F,2026-137F,2026-06-30T14:09:18.051264,13.89810938,.0010835,49.9996,201.9637,271.7974,88.1683,0,U,69577,999,189,.65682E-4,-.65E-6,0
GUOWANG OBJECT G,2026-137G,2026-06-30T14:07:54.774624,13.89796246,.0010829,49.9947,201.9422,271.6431,88.3227,0,U,69578,999,189,.75236E-4,-.53E-6,0
GUOWANG OBJECT H,2026-137H,2026-06-25T11:38:14.756064,13.92076941,.0010122,49.9967,222.2731,259.8752,100.1006,0,U,69579,999,118,.1427E-3,.37E-6,0
GUOWANG OBJECT J,2026-137J,2026-06-27T06:41:01.268160,13.91997107,.0011832,49.9961,215.0979,257.3150,102.6427,0,U,69580,999,143,.13174E-3,.22E-6,0
CENTISPACE-1 GROUP 05 OBJECT A,2026-138A,2026-06-30T15:06:31.900896,14.15474308,.0010329,55.1404,231.5287,310.3759,49.6313,0,U,69582,999,192,-.12102E-3,-.391E-5,0
CENTISPACE-1 GROUP 05 OBJECT B,2026-138B,2026-06-30T15:04:01.951104,14.15655432,.0009288,55.1404,231.5177,310.3007,49.7154,0,U,69583,999,192,-.12475E-3,-.399E-5,0
CENTISPACE-1 GROUP 05 OBJECT C,2026-138C,2026-06-30T15:02:51.523008,14.15739447,.0009223,55.1407,231.5218,312.1039,47.9150,0,U,69584,999,192,-.11513E-3,-.381E-5,0
CENTISPACE-1 GROUP 05 OBJECT D,2026-138D,2026-06-30T15:00:35.778240,14.15926654,.000878,55.1409,231.5041,310.9148,49.1066,0,U,69585,999,192,-.13599E-3,-.423E-5,0
CENTISPACE-1 GROUP 05 OBJECT E,2026-138E,2026-06-30T14:59:41.768736,14.15993133,.0008496,55.1406,231.5080,311.2087,48.8155,0,U,69586,999,192,-.11675E-3,-.385E-5,0
CENTISPACE-1 GROUP 05 OBJECT F,2026-138F,2026-06-30T20:05:28.432032,14.15916162,.0008395,55.1409,230.7299,316.2606,43.7703,0,U,69587,999,195,-.12864E-3,-.408E-5,0
CENTISPACE-1 GROUP 05 OBJECT G,2026-138G,2026-06-30T14:58:12.844992,14.16080891,.0007648,55.1408,231.5010,315.2101,44.8255,0,U,69588,999,192,-.11453E-3,-.381E-5,0
SPACEMOBILE-008,2026-139A,2026-06-30T13:15:17.640000,15.12784698,.0004236,52.9934,201.8880,19.9305,340.1850,0,U,69589,999,200,.32623E-4,.278E-5,0
SPACEMOBILE-009,2026-139B,2026-06-30T13:16:37.903008,15.12678048,.0004422,52.9925,201.8899,14.5316,345.5802,0,U,69590,999,200,.30675E-4,.242E-5,0
SPACEMOBILE-010,2026-139C,2026-06-30T11:43:36.404256,15.12509113,.00042823,52.9931,202.2012,4.5231,355.5798,0,U,69591,999,200,.29738151E-4,.224E-5,0
KUIPER-00423,2026-140A,2026-06-30T19:50:28.487040,15.38260596,.0013802,51.8825,332.6334,215.6431,144.3635,0,U,69592,999,333,.96068E-3,.3668E-3,0
KUIPER-00428,2026-140B,2026-06-30T18:50:17.304000,15.36526297,.0007024,51.8796,333.0963,4.5429,355.5620,0,U,69593,999,332,.1426E-2,.51622E-3,0
KUIPER-00481,2026-140C,2026-06-30T19:58:18.217056,15.37635872,.0010396,51.8792,332.6655,220.9245,139.0963,0,U,69594,999,333,.95398E-3,.3563E-3,0
KUIPER-00490,2026-140D,2026-06-30T18:38:15.749952,15.37568476,.0005913,51.8786,333.0389,281.1184,78.9138,0,U,69595,999,332,.94734E-3,.3526E-3,0
KUIPER-00493,2026-140E,2026-06-30T18:54:04.096224,15.36334201,.0006923,51.8810,333.1161,350.1369,9.9480,0,U,69596,999,332,.69383E-3,.24672E-3,0
KUIPER-00496,2026-140F,2026-06-30T19:01:29.966880,15.35015363,.0009791,51.8797,333.1445,0.9337,359.1665,0,U,69597,999,332,.96801E-3,.33196E-3,0
KUIPER-00513,2026-140G,2026-06-30T18:36:15.284160,15.37769985,.0006619,51.8819,333.0359,279.4195,80.6044,0,U,69598,999,332,.90767E-3,.33989E-3,0
KUIPER-00516,2026-140H,2026-06-30T18:40:48.970848,15.37357933,.0006197,51.8798,333.0516,298.6695,61.3669,0,U,69599,999,332,.78911E-3,.29081E-3,0
KUIPER-00517,2026-140J,2026-06-30T19:57:15.509664,15.38650489,.0010134,51.8779,332.6590,237.3381,122.6629,0,U,69600,999,333,.15694E-2,.61058E-3,0
