GUOWANG OBJECT A        
1 69572U 26137A   26181.74054652 -.00000029  00000+0  94836-4 0  9994
2 69572  49.9989 201.4250 0012632 270.2457  89.6993 13.89813685  1900
GUOWANG OBJECT B        
1 69573U 26137B   26181.59379670 -.00000051  00000+0  76857-4 0  9996
2 69573  49.9986 201.9806 0011859 269.0296  90.9243 13.89805334  1890
GUOWANG OBJECT C        
1 69574U 26137C   26181.59276983 -.00000039  00000+0  86813-4 0  9999
2 69574  49.9949 201.9638 0011914 270.3993  89.5540 13.89816111  1893
GUOWANG OBJECT D        
1 69575U 26137D   26181.30410499 -.00000065  00000+0  65478-4 0  9994
2 69575  49.9947 203.1014 0011128 268.2349  91.7274 13.89828912  1859
GUOWANG OBJECT E        
1 69576U 26137E   26181.59072174 -.00000053  00000+0  75299-4 0  9999
2 69576  50.0004 201.9704 0011230 272.1637  87.7975 13.89826642  1892
GUOWANG OBJECT F        
1 69577U 26137F   26181.58979226 -.00000065  00000+0  65682-4 0  9991
2 69577  49.9996 201.9637 0010835 271.7974  88.1683 13.89810938  1896
GUOWANG OBJECT G        
1 69578U 26137G   26181.58882841 -.00000053  00000+0  75236-4 0  9991
2 69578  49.9947 201.9422 0010829 271.6431  88.3227 13.89796246  1896
GUOWANG OBJECT H        
1 69579U 26137H   26176.48489301  .00000037  00000+0  14270-3 0  9990
2 69579  49.9967 222.2731 0010122 259.8752 100.1006 13.92076941  1185
GUOWANG OBJECT J        
1 69580U 26137J   26178.27848690  .00000022  00000+0  13174-3 0  9997
2 69580  49.9961 215.0979 0011832 257.3150 102.6427 13.91997107  1436
CENTISPACE-1 GROUP 05 O*
1 69582U 26138A   26181.62953589 -.00000391  00000+0 -12102-3 0  9998
2 69582  55.1404 231.5287 0010329 310.3759  49.6313 14.15474308  1927
CENTISPACE-1 GROUP 05 O*
1 69583U 26138B   26181.62780036 -.00000399  00000+0 -12475-3 0  9995
2 69583  55.1404 231.5177 0009288 310.3007  49.7154 14.15655432  1927
CENTISPACE-1 GROUP 05 O*
1 69584U 26138C   26181.62698522 -.00000381  00000+0 -11513-3 0  9997
2 69584  55.1407 231.5218 0009223 312.1039  47.9150 14.15739447  1926
CENTISPACE-1 GROUP 05 O*
1 69585U 26138D   26181.62541410 -.00000423  00000+0 -13599-3 0  9994
2 69585  55.1409 231.5041 0008780 310.9148  49.1066 14.15926654  1925
CENTISPACE-1 GROUP 05 O*
1 69586U 26138E   26181.62478899 -.00000385  00000+0 -11675-3 0  9995
2 69586  55.1406 231.5080 0008496 311.2087  48.8155 14.15993133  1927
CENTISPACE-1 GROUP 05 O*
1 69587U 26138F   26181.83713463 -.00000408  00000+0 -12864-3 0  9995
2 69587  55.1409 230.7299 0008395 316.2606  43.7703 14.15916162  1957
CENTISPACE-1 GROUP 05 O*
1 69588U 26138G   26181.62375978 -.00000381  00000+0 -11453-3 0  9991
2 69588  55.1408 231.5010 0007648 315.2101  44.8255 14.16080891  1929
SPACEMOBILE-008         
1 69589U 26139A   26181.55228750  .00000278  00000+0  32623-4 0  9996
2 69589  52.9934 201.8880 0004236  19.9305 340.1850 15.12784698  2004
SPACEMOBILE-009         
1 69590U 26139B   26181.55321647  .00000242  00000+0  30675-4 0  9993
2 69590  52.9925 201.8899 0004422  14.5316 345.5802 15.12678048  2003
SPACEMOBILE-010         
1 69591U 26139C   26181.48861579  .00000224  00000+0  29738-4 0  9997
2 69591  52.9931 202.2012 0004282   4.5231 355.5798 15.12509113  2003
KUIPER-00423            
1 69592U 26140A   26181.82671860  .00036680  00000+0  96068-3 0  9994
2 69592  51.8825 332.6334 0013802 215.6431 144.3635 15.38260596  3332
KUIPER-00428            
1 69593U 26140B   26181.78492250  .00051622  00000+0  14260-2 0  9990
2 69593  51.8796 333.0963 0007024   4.5429 355.5620 15.36526297  3324
KUIPER-00481            
1 69594U 26140C   26181.83215529  .00035630  00000+0  95398-3 0  9992
2 69594  51.8792 332.6655 0010396 220.9245 139.0963 15.37635872  3337
KUIPER-00490            
1 69595U 26140D   26181.77657118  .00035260  00000+0  94734-3 0  9992
2 69595  51.8786 333.0389 0005913 281.1184  78.9138 15.37568476  3329
KUIPER-00493            
1 69596U 26140E   26181.78754741  .00024672  00000+0  69383-3 0  9991
2 69596  51.8810 333.1161 0006923 350.1369   9.9480 15.36334201  3321
KUIPER-00496            
1 69597U 26140F   26181.79270795  .00033196  00000+0  96801-3 0  9991
2 69597  51.8797 333.1445 0009791   0.9337 359.1665 15.35015363  3321
KUIPER-00513            
1 69598U 26140G   26181.77517690  .00033989  00000+0  90767-3 0  9993
2 69598  51.8819 333.0359 0006619 279.4195  80.6044 15.37769985  3326
KUIPER-00516            
1 69599U 26140H   26181.77834457  .00029081  00000+0  78911-3 0  9992
2 69599  51.8798 333.0516 0006197 298.6695  61.3669 15.37357933  3322
KUIPER-00517            
1 69600U 26140J   26181.83142951  .00061058  00000+0  15694-2 0  9991
2 69600  51.8779 332.6590 0010134 237.3381 122.6629 15.38650489  3330
